OBJECT_NAME,OBJECT_ID,EPOCH,MEAN_MOTION,ECCENTRICITY,INCLINATION,RA_OF_ASC_NODE,ARG_OF_PERICENTER,MEAN_ANOMALY,EPHEMERIS_TYPE,CLASSIFICATION_TYPE,NORAD_CAT_ID,ELEMENT_SET_NO,REV_AT_EPOCH,BSTAR,MEAN_MOTION_DOT,MEAN_MOTION_DDOT
EYESAT A (AO-27),1993-061C,2026-06-17T03:21:12.093984,14.30942270,.0009538,98.6881,235.5533,99.8912,260.3348,0,U,22825,999,70699,.48352E-4,.83E-6,0
ITAMSAT (IO-26),1993-061D,2026-06-17T02:51:34.559136,14.31369167,.0010073,98.6828,235.4502,85.1350,275.0983,0,U,22826,999,70730,.45962E-4,.77E-6,0
RADIO ROSTO (RS15),1994-085A,2026-06-17T11:17:51.705312,11.27583456,.0155956,64.8179,302.7576,3.8240,356.3838,0,U,23439,999,29593,-.28183E-3,-.52E-6,0
JAS-2 (FO-29),1996-046B,2026-06-17T09:14:28.569696,13.53274404,.0350906,98.5239,17.2301,95.9202,268.2041,0,U,24278,999,47319,.32651E-4,0,0
FORTE,1997-047A,2026-06-16T22:54:48.641760,14.27945022,.0024626,69.9539,14.5464,277.6776,82.1550,0,U,24920,999,49865,.68423E-4,.112E-5,0
TECHSAT 1B (GO-32),1998-043D,2026-06-17T11:39:37.257696,14.24428440,.000108,99.0067,161.2520,161.9506,198.1711,0,U,25397,999,45137,.35404E-4,.35E-6,0
ISS (ZARYA),1998-067A,2026-06-17T12:17:17.634624,15.49281356,.0004697,51.6331,298.4851,196.4176,163.6661,0,U,25544,999,57180,.19142E-3,.10215E-3,0
IMAGE,2000-017A,2026-06-11T08:17:58.695072,1.68665984,.7436383,94.2241,315.2958,288.4674,8.8959,0,U,26113,999,16140,.22926E-1,.11E-6,0
CLUSTER II-FM7 (SAMBA),2000-041A,2026-06-17T03:20:03.973632,0.44868040,.9054007,149.9159,50.9864,268.1291,359.6411,0,U,26410,999,2030,0,.13373E-3,0
CLUSTER II-FM8 (TANGO),2000-045B,2026-06-15T04:30:08.872416,0.44418308,.9057004,150.1504,51.7507,268.7261,2.8044,0,U,26464,999,2030,0,.11725E-3,0
ODIN,2001-007A,2026-06-17T02:16:00.301152,15.75772883,.0006702,97.3826,209.0303,143.1796,216.9931,0,U,26702,999,38938,.98467E-3,.153404E-2,0
OMNI-M1,2001-026A,2026-06-16T05:01:03.889056,3.92401638,.0014194,44.8307,245.4893,53.4474,306.7446,0,U,26857,999,20553,0,-.1E-7,0
PCSAT (NO-44),2001-043C,2026-06-17T12:12:18.008928,14.31956189,.0006079,67.0505,243.4407,264.6457,95.3952,0,U,26931,999,29049,.58672E-4,.74E-6,0
PROBA-1,2001-049B,2026-06-17T12:50:18.015936,15.07495993,.0056454,97.9594,177.0795,120.6354,240.0456,0,U,26958,999,34367,.97885E-4,.1468E-4,0
SAUDISAT 1C (SO-50),2002-058C,2026-06-17T11:49:08.406624,14.83047547,.0075265,64.5510,128.0407,262.4185,96.8368,0,U,27607,999,26450,.11042E-3,.788E-5,0
CORIOLIS,2003-001A,2026-06-17T11:29:49.183008,14.19944827,.001339,98.7125,175.3594,207.8782,152.1679,0,U,27640,999,21426,.53628E-4,.7E-6,0
CUTE-1 (CO-55),2003-031E,2026-06-17T05:57:00.313056,14.24335742,.0009542,98.6736,176.8060,177.7909,182.3314,0,U,27844,999,19168,.11738E-3,.228E-5,0
CUBESAT XI-IV (CO-57),2003-031J,2026-06-16T22:55:35.785056,14.23620738,.0009009,98.6766,176.2299,197.6805,162.4061,0,U,27848,999,19134,.10575E-3,.197E-5,0
MOZHAETS 4 (RS22),2003-042A,2026-06-17T13:22:59.422944,14.73467010,.0009937,98.3462,352.9265,268.4720,184.4032,0,U,27939,999,21560,.90121E-4,.531E-5,0
SAUDISAT 2,2004-025F,2026-06-17T12:14:05.276256,14.56684071,.0023578,98.5508,168.5000,297.2213,62.6582,0,U,28371,999,16579,.52562E-4,.186E-5,0
